EUTELSAT QUANTUM        
1 49056U 21069B   25362.12180683  .00000148  00000+0  00000+0 0  9990
2 49056   0.0173  38.9810 0003703 244.7142 264.6980  1.00271950 16213
EUTELSAT KONNECT VHTS   
1 53765U 22110A   25360.97162558  .00000039  00000+0  00000+0 0  9991
2 53765   0.0593  98.4997 0002788 152.3600 197.3421  1.00268307  5103
EUTELSAT HOTBIRD 13F    
1 54048U 22134A   25361.90392043  .00000111  00000+0  00000+0 0  9991
2 54048   0.0521 291.0946 0002464  57.6177  86.3355  1.00278682 11669
EUTELSAT HOTBIRD 13G    
1 54225U 22146A   25360.94905771  .00000107  00000+0  00000+0 0  9997
2 54225   0.0501 221.1292 0002214 348.4298 240.7501  1.00258057  5734
EUTELSAT 10B            
1 54259U 22157A   25362.04302634  .00000092  00000+0  00000+0 0  9991
2 54259   0.0575  96.1707 0001225 109.5420 276.5717  1.00277984 11314
EUTELSAT 36D            
1 59346U 24059A   25362.02266889  .00000000  00000+0  00000+0 0  9994
2 59346   0.0223  25.7553 0000433 286.4705 188.5653  1.00271342  6434
